[
    {
        "OBJECT_NAME": "QZS-4 (QZSS/PRN 195)",
        "OBJECT_ID": "2017-062A",
        "EPOCH": "2026-07-21T06:10:27.954336",
        "MEAN_MOTION": 1.00289434,
        "ECCENTRICITY": 0.07469394,
        "INCLINATION": 40.0879,
        "RA_OF_ASC_NODE": 343.0509,
        "ARG_OF_PERICENTER": 268.6822,
        "MEAN_ANOMALY": 279.3148,
        "EPHEMERIS_TYPE": 0,
        "CLASSIFICATION_TYPE": "U",
        "NORAD_CAT_ID": 42965,
        "ELEMENT_SET_NO": 999,
        "REV_AT_EPOCH": 3214,
        "BSTAR": 0,
        "MEAN_MOTION_DOT": -3.58e-06,
        "MEAN_MOTION_DDOT": 0
    },
    {
        "OBJECT_NAME": "BEIDOU-3 G1 (PRN 130)",
        "OBJECT_ID": "2018-085A",
        "EPOCH": "2026-07-22T13:58:08.340672",
        "MEAN_MOTION": 1.00272967,
        "ECCENTRICITY": 0.00083134,
        "INCLINATION": 2.956,
        "RA_OF_ASC_NODE": 96.4144,
        "ARG_OF_PERICENTER": 357.3143,
        "MEAN_ANOMALY": 216.1265,
        "EPHEMERIS_TYPE": 0,
        "CLASSIFICATION_TYPE": "U",
        "NORAD_CAT_ID": 43683,
        "ELEMENT_SET_NO": 999,
        "REV_AT_EPOCH": 2841,
        "BSTAR": 0,
        "MEAN_MOTION_DOT": -1.07e-06,
        "MEAN_MOTION_DDOT": 0
    },
    {
        "OBJECT_NAME": "EUTELSAT 5 WEST B (EGNOS/PRN 121)",
        "OBJECT_ID": "2019-067A",
        "EPOCH": "2026-07-22T07:52:37.173792",
        "MEAN_MOTION": 1.00271991,
        "ECCENTRICITY": 0.00032595,
        "INCLINATION": 0.0733,
        "RA_OF_ASC_NODE": 326.0758,
        "ARG_OF_PERICENTER": 153.312,
        "MEAN_ANOMALY": 293.8288,
        "EPHEMERIS_TYPE": 0,
        "CLASSIFICATION_TYPE": "U",
        "NORAD_CAT_ID": 44624,
        "ELEMENT_SET_NO": 999,
        "REV_AT_EPOCH": 2478,
        "BSTAR": 0,
        "MEAN_MOTION_DOT": -3.9e-07,
        "MEAN_MOTION_DDOT": 0
    },
    {
        "OBJECT_NAME": "BEIDOU-3 G2 (PRN 144)",
        "OBJECT_ID": "2020-017A",
        "EPOCH": "2026-07-22T15:07:25.609728",
        "MEAN_MOTION": 1.00272691,
        "ECCENTRICITY": 0.00020855,
        "INCLINATION": 2.9347,
        "RA_OF_ASC_NODE": 47.8452,
        "ARG_OF_PERICENTER": 57.4791,
        "MEAN_ANOMALY": 141.9368,
        "EPHEMERIS_TYPE": 0,
        "CLASSIFICATION_TYPE": "U",
        "NORAD_CAT_ID": 45344,
        "ELEMENT_SET_NO": 999,
        "REV_AT_EPOCH": 2361,
        "BSTAR": 0,
        "MEAN_MOTION_DOT": -1.39e-06,
        "MEAN_MOTION_DDOT": 0
    },
    {
        "OBJECT_NAME": "BEIDOU-3 G3 (PRN 143)",
        "OBJECT_ID": "2020-040A",
        "EPOCH": "2026-07-22T15:16:09.771744",
        "MEAN_MOTION": 1.00273366,
        "ECCENTRICITY": 0.00022936,
        "INCLINATION": 2.5325,
        "RA_OF_ASC_NODE": 67.5045,
        "ARG_OF_PERICENTER": 316.0842,
        "MEAN_ANOMALY": 256.3813,
        "EPHEMERIS_TYPE": 0,
        "CLASSIFICATION_TYPE": "U",
        "NORAD_CAT_ID": 45807,
        "ELEMENT_SET_NO": 999,
        "REV_AT_EPOCH": 2242,
        "BSTAR": 0,
        "MEAN_MOTION_DOT": -3.52e-06,
        "MEAN_MOTION_DDOT": 0
    },
    {
        "OBJECT_NAME": "GALAXY 30 (WAAS/PRN 135)",
        "OBJECT_ID": "2020-056C",
        "EPOCH": "2026-07-22T12:06:38.635776",
        "MEAN_MOTION": 1.00271306,
        "ECCENTRICITY": 0.00022295,
        "INCLINATION": 0.015,
        "RA_OF_ASC_NODE": 70.1395,
        "ARG_OF_PERICENTER": 47.1977,
        "MEAN_ANOMALY": 239.5623,
        "EPHEMERIS_TYPE": 0,
        "CLASSIFICATION_TYPE": "U",
        "NORAD_CAT_ID": 46114,
        "ELEMENT_SET_NO": 999,
        "REV_AT_EPOCH": 2164,
        "BSTAR": 0,
        "MEAN_MOTION_DOT": 4.1e-07,
        "MEAN_MOTION_DDOT": 0
    },
    {
        "OBJECT_NAME": "QZS-1R (QZSS/PRN 196)",
        "OBJECT_ID": "2021-096A",
        "EPOCH": "2026-07-19T13:27:51.734016",
        "MEAN_MOTION": 1.00244085,
        "ECCENTRICITY": 0.07555125,
        "INCLINATION": 37.5263,
        "RA_OF_ASC_NODE": 79.1015,
        "ARG_OF_PERICENTER": 272.3091,
        "MEAN_ANOMALY": 279.1178,
        "EPHEMERIS_TYPE": 0,
        "CLASSIFICATION_TYPE": "U",
        "NORAD_CAT_ID": 49336,
        "ELEMENT_SET_NO": 999,
        "REV_AT_EPOCH": 1733,
        "BSTAR": 0,
        "MEAN_MOTION_DOT": -3.22e-06,
        "MEAN_MOTION_DDOT": 0
    },
    {
        "OBJECT_NAME": "QZS-6 (QZSS/PRN 200)",
        "OBJECT_ID": "2025-023A",
        "EPOCH": "2026-07-22T14:12:23.541696",
        "MEAN_MOTION": 1.00273977,
        "ECCENTRICITY": 0.00020586,
        "INCLINATION": 0.0176,
        "RA_OF_ASC_NODE": 52.226,
        "ARG_OF_PERICENTER": 62.8136,
        "MEAN_ANOMALY": 128.8871,
        "EPHEMERIS_TYPE": 0,
        "CLASSIFICATION_TYPE": "U",
        "NORAD_CAT_ID": 62876,
        "ELEMENT_SET_NO": 999,
        "REV_AT_EPOCH": 530,
        "BSTAR": 0,
        "MEAN_MOTION_DOT": -2.3e-06,
        "MEAN_MOTION_DDOT": 0
    }
]
